ORBCOMM FM06            
1 25118U 97084G   26186.42486906  .00001730  00000+0  50427-3 0  9998
2 25118  45.0146 324.9131 0000704 200.9001 188.9790 14.47612510497031
ORBCOMM FM04            
1 25159U 98007C   26187.69392302  .00000703  00000+0  28591-3 0  9991
2 25159 107.9630 209.5681 0041819 291.3491  68.3189 14.35774939479392
ORBCOMM FM19            
1 25415U 98046C   26187.24983253  .00001011  00000+0  36651-3 0  9990
2 25415  44.9923 152.9460 0003727   7.9238 124.3794 14.39529371459524
ORBCOMM FM20            
1 25416U 98046D   26186.00565869  .00000848  00000+0  32377-3 0  9991
2 25416  44.9918 166.9799 0002210 311.3972  48.6686 14.38089487459359
ORBCOMM FM27            
1 25481U 98053G   26187.13854191  .00000722  00000+0  27671-3 0  9997
2 25481  45.0043 245.3396 0002349 260.2482  99.8101 14.39175269452963
ORBCOMM FM32            
1 25982U 99065C   26187.05952295  .00000866  00000+0  33593-3 0  9991
2 25982  45.0151  83.9075 0004843 145.5851 214.5311 14.37159434389800
ORBCOMM FM109           
1 40086U 14040A   26187.75409146  .00000382  00000+0  11711-3 0  9993
2 40086  47.0043 358.9753 0001783 297.6087  62.4618 14.58866629637206
ORBCOMM FM110           
1 41182U 15081D   26187.69068044  .00000570  00000+0  15666-3 0  9990
2 41182  47.0018 269.2243 0003151 185.1194 174.9660 14.58911047560470
ORBCOMM FM118           
1 41183U 15081E   26187.72502997  .00000350  00000+0  11019-3 0  9999
2 41183  47.0034 269.3972 0002478 143.3178 216.7878 14.58899259560586
ORBCOMM FM112           
1 41184U 15081F   26187.31831563  .00000685  00000+0  18086-3 0  9991
2 41184  46.9970 179.7787 0004078 292.4236  67.6217 14.58928334561747
ORBCOMM FM113           
1 41185U 15081G   26187.70649644  .00000344  00000+0  10905-3 0  9996
2 41185  46.9987 178.3291 0002561 291.0439  69.0173 14.58875985561780
ORBCOMM FM108           
1 41187U 15081J   26187.12076946  .00000718  00000+0  18793-3 0  9991
2 41187  47.0047  92.6775 0003033 289.6413  70.4146 14.58900299562847
ORBCOMM FM117           
1 41188U 15081K   26187.08642512  .00000741  00000+0  19281-3 0  9994
2 41188  47.0011  91.4691 0003494 294.8659  65.1863 14.58888041562885
ORBCOMM FM116           
1 41189U 15081L   26187.68299437  .00000205  00000+0  79495-4 0  9994
2 41189  47.0006 178.4376 0001230 205.4076 154.6750 14.58900577561789
